37158,QZS-1 (MICHIBIKI-1),2010,1641.68,4000.0,-,43.06,Inactive,1,HEO,Japan,Japan,Government,Navigation (Global or Regional Positioning),H2A,1 37158U 10045A   24018.49280149 -.00000030  00000+0  00000+0 0  9998,2 37158  43.0564 126.1383 0003013 145.1939 209.9563  0.87715038 48679,0.87715038,0.0003013,HEO
24876,NAVSTAR 43 (USA 132),1997,717.97,2217.0,+,55.63,Active,1,MEO,USA,USA,Commercial/Military,Navigation (Global or Regional Positioning),Delta,1 24876U 97035A   24020.20371475 -.00000024  00000+0  00000+0 0  9993,2 24876  55.6254 132.9567 0075841  53.2418 307.4301  2.00565124194329,2.00565124,0.0075841,MEO
26360,NAVSTAR 47 (USA 150),2000,717.99,2217.0,+,54.55,Active,1,MEO,USA,USA,Commercial/Military,Navigation (Global or Regional Positioning),Delta,1 26360U 00025A   24020.09953764 -.00000070  00000+0  00000+0 0  9991,2 26360  54.5462  54.9637 0040716 210.0540 165.1126  2.00560528173640,2.00560528,0.0040716,MEO
27663,NAVSTAR 51 (USA 166),2003,718.0,2217.0,+,55.17,Active,1,MEO,USA,USA,Commercial/Military,Navigation (Global or Regional Positioning),Delta,1 27663U 03005A   24020.62265684  .00000056  00000+0  00000+0 0  9998,2 27663  55.1731 249.9079 0137706  46.2444 324.4860  2.00558091153697,2.00558091,0.0137706,MEO
27704,NAVSTAR 52 (USA 168),2003,718.0,2217.0,+,55.12,Active,1,MEO,USA,USA,Commercial/Military,Navigation (Global or Regional Positioning),Delta,1 27704U 03010A   24020.47607382 -.00000096  00000+0  00000+0 0  9993,2 27704  55.1152 359.7926 0253449 322.6094 159.5864  2.00557191152483,2.00557191,0.0253449,MEO
28474,NAVSTAR 56 (USA 180),2004,718.07,2217.0,+,55.44,Active,1,MEO,USA,USA,Commercial/Military,Navigation (Global or Regional Positioning),Delta,1 28474U 04045A   24020.57207031 -.00000095  00000+0  00000+0 0  9994,2 28474  55.4431   0.1572 0164929 287.5890 251.7101  2.00537925140807,2.00537925,0.0164929,MEO
28868,ANIK F1R,2005,1436.1,4500.0,+,2.05,Active,1,GSO,Kazakhstan,Canada,Commercial,Communications,Proton,1 28868U 05036A   24020.60886417 -.00000072  00000+0  00000+0 0  9992,2 28868   2.0493  87.4653 0001714 234.0116 269.8535  1.00271589 37646,1.00271589,0.0001714,GSO
28874,NAVSTAR 57 (USA 183),2005,717.97,2217.0,+,55.63,Active,1,MEO,USA,USA,Commercial/Military,Navigation (Global or Regional Positioning),Delta,1 28874U 05038A   24020.59699781 -.00000084  00000+0  00000+0 0  9998,2 28874  55.6274 308.4236 0139025 282.6555 251.3149  2.00565863134210,2.00565863,0.0139025,MEO
28899,INMARSAT 4-F2,2005,1436.07,5458.0,+,4.02,Active,1,GSO,Sea Launch Platform,INMARSAT,Commercial,Communications,Zenit,1 28899U 05044A   24020.52914015 -.00000259  00000+0  00000+0 0  9999,2 28899   4.0259  41.8348 0002294 264.5081 147.0224  1.00272468 66719,1.00272468,0.0002294,GSO
29486,NAVSTAR 58 (USA 190),2006,717.98,2060.0,+,54.68,Active,1,MEO,USA,USA,Commercial/Military,Navigation (Global or Regional Positioning),Delta,1 29486U 06042A   24020.56223795  .00000079  00000+0  00000+0 0  9992,2 29486  54.6815 186.1751 0104780  36.4001  12.7165  2.00563338126778,2.00563338,0.010478,MEO
29601,NAVSTAR 59 (USA 192),2006,718.0,2060.0,+,55.2,Active,1,MEO,USA,USA,Commercial/Military,Navigation (Global or Regional Positioning),Delta,1 29601U 06052A   24019.92483904  .00000053  00000+0  00000+0 0  9992,2 29601  55.1987 248.9040 0087013  80.3573 280.6937  2.00557676125772,2.00557676,0.0087013,MEO
32260,NAVSTAR 60 (USA 196),2007,717.95,2217.0,+,53.53,Active,1,MEO,USA,USA,Commercial/Military,Navigation (Global or Regional Positioning),Delta,1 32260U 07047A   24020.23128415 -.00000050  00000+0  00000+0 0  9999,2 32260  53.5300 116.4238 0152280  73.5328 288.1337  2.00572108119189,2.00572108,0.015228,MEO
32275,COSMOS 2433 [GLONASS-M],2007,675.73,1480.0,+,65.99,Active,1,MEO,Kazakhstan,Russia/USSR,Commercial/Military,Navigation (Global or Regional Positioning),Proton,1 32275U 07052A   24019.05599990 -.00000070  00000+0  00000+0 0  9991,2 32275  65.9861 345.3854 0004742 271.7320  88.2108  2.13103902126307,2.13103902,0.0004742,MEO
32276,COSMOS 2432 [GLONASS-M],2007,675.73,1480.0,+,66.0,Active,1,MEO,Kazakhstan,Russia/USSR,Commercial/Military,Navigation (Global or Regional Positioning),Proton,1 32276U 07052B   24019.31361712 -.00000072  00000+0  00000+0 0  9992,2 32276  66.0006 345.4879 0012132 320.5636 183.6772  2.13103186126338,2.13103186,0.0012132,MEO
32384,NAVSTAR 61 (USA 199),2007,717.97,2060.0,+,55.76,Active,1,MEO,USA,USA,Commercial/Military,Navigation (Global or Regional Positioning),Delta,1 32384U 07062A   24020.30893831 -.00000085  00000+0  00000+0 0  9990,2 32384  55.7632 309.2766 0024165 148.9521  35.4236  2.00565757117886,2.00565757,0.0024165,MEO
32393,COSMOS 2434 [GLONASS-M],2007,675.73,1480.0,+,64.33,Active,1,MEO,Kazakhstan,Russia/USSR,Commercial/Military,Navigation (Global or Regional Positioning),Proton,1 32393U 07065A   24020.60476682  .00000112  00000+0  00000+0 0  9997,2 32393  64.3261 221.6117 0005115  74.5999 285.1825  2.13103092125043,2.13103092,0.0005115,MEO
32395,COSMOS 2436 [GLONASS-M],2007,675.73,1480.0,+,64.33,Active,1,MEO,Kazakhstan,Russia/USSR,Commercial/Military,Navigation (Global or Regional Positioning),Proton,1 32395U 07065C   24020.50970748  .00000112  00000+0  00000+0 0  9990,2 32395  64.3350 221.6778 0017288   9.3479  52.8456  2.13102762125008,2.13102762,0.0017288,MEO
32711,NAVSTAR 62 (USA 201),2008,717.98,2217.0,+,54.45,Active,1,MEO,USA,USA,Commercial/Military,Navigation (Global or Regional Positioning),Delta,1 32711U 08012A   24020.14846844  .00000082  00000+0  00000+0 0  9990,2 32711  54.4514 184.9904 0180240 236.8245 121.4213  2.00562577116128,2.00562577,0.018024,MEO
35752,NAVSTAR 64 (USA 206),2009,718.03,2059.0,+,55.55,Active,1,MEO,USA,USA,Commercial/Military,Navigation (Global or Regional Positioning),Delta,1 35752U 09043A   24020.25607303 -.00000067  00000+0  00000+0 0  9994,2 35752  55.5486  62.2115 0055412  69.8533  20.9474  2.00549917105734,2.00549917,0.0055412,MEO
36111,COSMOS 2456 [GLONASS-M],2009,675.74,1415.0,+,64.55,Active,1,MEO,Kazakhstan,Russia/USSR,Commercial/Military,Navigation (Global or Regional Positioning),Proton,1 36111U 09070A   24020.40467103 -.00000051  00000+0  00000+0 0  9996,2 36111  64.5462 101.0644 0004054 295.6543  67.6820  2.13098889109708,2.13098889,0.0004054,MEO
36112,COSMOS 2457 [GLONASS-M],2009,675.74,1415.0,+,64.53,Active,1,MEO,Kazakhstan,Russia/USSR,Commercial/Military,Navigation (Global or Regional Positioning),Proton,1 36112U 09070B   24020.29653692 -.00000050  00000+0  00000+0 0  9993,2 36112  64.5305 100.9302 0004863 175.6015 236.6555  2.13101081109705,2.13101081,0.0004863,MEO
36402,COSMOS 2460 [GLONASS-M],2010,675.72,1415.0,+,65.85,Active,1,MEO,Kazakhstan,Russia/USSR,Commercial/Military,Navigation (Global or Regional Positioning),Proton,1 36402U 10007C   24020.38457869 -.00000080  00000+0  00000+0 0  9998,2 36402  65.8451 344.0331 0002655 308.2198 161.6409  2.13106151108009,2.13106151,0.0002655,MEO
36585,NAVSTAR 65 (USA 213),2010,717.96,1630.0,+,54.5,Active,1,MEO,USA,USA,Commercial/Military,Navigation (Global or Regional Positioning),Delta,1 36585U 10022A   24020.21203089  .00000065  00000+0  00000+0 0  9994,2 36585  54.5031 244.0171 0115508  60.7219 121.1036  2.00569046 99960,2.00569046,0.0115508,MEO
36828,BEIDOU-2 IGSO-1,2010,1436.12,4200.0,+,54.25,Active,1,GSO,PRC,China,Government/Military,Navigation (Global or Regional Positioning),Long March,1 36828U 10036A   24020.33939299 -.00000085  00000+0  00000+0 0  9994,2 36828  54.2468 170.9150 0038896 192.3809 346.7161  1.00269854 49395,1.00269854,0.0038896,GSO
37210,BEIDOU-2 G4,2010,1436.1,6000.0,+,1.49,Active,1,GSO,PRC,China,Government/Military,Navigation (Global or Regional Positioning),Long March,1 37210U 10057A   24020.63567594 -.00000109  00000+0  00000+0 0  9998,2 37210   1.4925  66.0713 0007596 195.3299 247.0108  1.00272006 48488,1.00272006,0.0007596,GSO
37256,BEIDOU-2 IGSO-2,2010,1435.72,4200.0,+,49.15,Active,1,GSO,PRC,China,Government/Military,Navigation (Global or Regional Positioning),Long March,1 37256U 10068A   24019.72538448 -.00000196  00000+0  00000+0 0  9990,2 37256  49.1524 282.6385 0031684 213.8148 348.4521  1.00298066 47979,1.00298066,0.0031684,GSO
37384,BEIDOU-2 IGSO-3,2011,1435.74,4200.0,+,61.13,Active,1,GSO,PRC,China,Government/Military,Navigation (Global or Regional Positioning),Long March,1 37384U 11013A   24018.01924644 -.00000180  00000+0  00000+0 0  9994,2 37384  61.1348  48.5701 0028665 183.6346 357.5535  1.00296498 46825,1.00296498,0.0028665,GSO
37605,GSAT-8,2011,1436.11,3093.0,+,0.05,Active,1,GSO,French Guiana,India,Government,Communications/Navigation (Global or Regional Positioning),Ariane,1 37605U 11022A   24020.47192866  .00000089  00000+0  00000+0 0  9993,2 37605   0.0516 254.5025 0008705  20.0601  69.7231  1.00271137 44409,1.00271137,0.0008705,GEO
37763,BEIDOU-2 IGSO-4,2011,1435.84,4200.0,+,54.55,Active,1,GSO,PRC,China,Government/Military,Navigation (Global or Regional Positioning),Long March,1 37763U 11038A   24020.39968274 -.00000010  00000+0  00000+0 0  9995,2 37763  54.5544 173.4960 0117483 226.5759 316.9959  1.00289889 45832,1.00289889,0.0117483,GSO
